[
    {
        "Altitude(m)": 570610.3800620408,
        "Argument of Periapsis(deg)": -0.037671934638287344,
        "Eccentricity": 0.0,
        "Inclination(deg)": 97.0,
        "Latitude(deg)": 46.612912011317455,
        "Longitude(deg)": -21.35143173349308,
        "Mean Anomaly(deg)": 47.006438781979156,
        "RAAN(deg)": 90.00991175603086,
        "Satellite Name": "Starlink Shell 3 1814",
        "Satellite Number": 1814,
        "Semi-Major Axis(m)": 6938478.169268562,
        "Time(s)": 950
    },
    {
        "Altitude(m)": 570750.7494332353,
        "Argument of Periapsis(deg)": -0.03806848131869037,
        "Eccentricity": 0.0,
        "Inclination(deg)": 97.0,
        "Latitude(deg)": 47.228723945937915,
        "Longitude(deg)": -21.55570901714089,
        "Mean Anomaly(deg)": 47.63191497968428,
        "RAAN(deg)": 90.01001609030487,
        "Satellite Name": "Starlink Shell 3 1814",
        "Satellite Number": 1814,
        "Semi-Major Axis(m)": 6938478.169268562,
        "Time(s)": 960
    },
    {
        "Altitude(m)": 570891.376235571,
        "Argument of Periapsis(deg)": -0.0384650279990934,
        "Eccentricity": 0.0,
        "Inclination(deg)": 97.0,
        "Latitude(deg)": 47.844225815207714,
        "Longitude(deg)": -21.763788044258956,
        "Mean Anomaly(deg)": 48.25739117738929,
        "RAAN(deg)": 90.01012042457886,
        "Satellite Name": "Starlink Shell 3 1814",
        "Satellite Number": 1814,
        "Semi-Major Axis(m)": 6938478.169268562,
        "Time(s)": 970
    },
    {
        "Altitude(m)": 571032.1739565114,
        "Argument of Periapsis(deg)": -0.03886157467949641,
        "Eccentricity": 0.0,
        "Inclination(deg)": 97.0,
        "Latitude(deg)": 48.45940695078545,
        "Longitude(deg)": -21.97584211621455,
        "Mean Anomaly(deg)": 48.88286737509428,
        "RAAN(deg)": 90.01022475885287,
        "Satellite Name": "Starlink Shell 3 1814",
        "Satellite Number": 1814,
        "Semi-Major Axis(m)": 6938478.169268562,
        "Time(s)": 980
    },
    {
        "Altitude(m)": 571173.0562653894,
        "Argument of Periapsis(deg)": -0.03925812135989944,
        "Eccentricity": 0.0,
        "Inclination(deg)": 97.0,
        "Latitude(deg)": 49.074256092198695,
        "Longitude(deg)": -22.19205406483882,
        "Mean Anomaly(deg)": 49.5083435727994,
        "RAAN(deg)": 90.0103290931269,
        "Satellite Name": "Starlink Shell 3 1814",
        "Satellite Number": 1814,
        "Semi-Major Axis(m)": 6938478.169268562,
        "Time(s)": 990
    }
]